{"fetched_at":"2026-07-17T06:38:10.257Z","source":"https://celestrak.org/NORAD/elements/gp.php?NAME=EROS&FORMAT=JSON","constellation":"eros","records":[{"OBJECT_NAME":"EROS C3","OBJECT_ID":"2022-179A","EPOCH":"2026-07-16T19:59:16.066176","CLASSIFICATION_TYPE":"U","MEAN_MOTION":15.11042828,"ECCENTRICITY":0.0007675,"INCLINATION":139.3346,"RA_OF_ASC_NODE":174.2504,"ARG_OF_PERICENTER":192.0499,"MEAN_ANOMALY":168.0125,"EPHEMERIS_TYPE":0,"NORAD_CAT_ID":54880,"ELEMENT_SET_NO":999,"REV_AT_EPOCH":19681,"BSTAR":0.00015324,"MEAN_MOTION_DOT":0.00002851,"MEAN_MOTION_DDOT":0}]}
