EROS C3                 
1 54880U 22179A   26197.83282484  .00002851  00000+0  15324-3 0  9993
2 54880 139.3346 174.2504 0007675 192.0499 168.0125 15.11042828196818
